FLOCK 4BE-17            
1 60492U 24149AA  26189.72695059  .00011296  00000+0  28107-3 0  9999
2 60492  97.3765 273.2745 0003931 162.8357 197.3023 15.40434288105570
FLOCK 4BE-22            
1 60494U 24149AC  26190.53272143  .00011831  00000+0  28071-3 0  9992
2 60494  97.3728 274.3148 0004321 170.2416 189.8915 15.41863105105743
FLOCK 4BE-34            
1 60495U 24149AD  26189.77135223  .00011999  00000+0  28513-3 0  9990
2 60495  97.3774 274.3812 0004183 179.9988 180.1260 15.41812306105653
FLOCK 4BE-32            
1 60497U 24149AF  26189.79009742  .00013635  00000+0  31189-3 0  9992
2 60497  97.3712 273.9609 0004383 177.0530 183.0744 15.42925610105664
FLOCK 4BE-11            
1 60501U 24149AK  26191.19944043  .00014279  00000+0  31750-3 0  9996
2 60501  97.3696 275.6385 0004566 172.5870 187.5446 15.43759592105901
FLOCK 4BE-24            
1 60505U 24149AP  26190.53571544  .00015684  00000+0  34635-3 0  9995
2 60505  97.3710 275.2320 0004496 186.8328 173.2860 15.43944372105819
FLOCK 4BE-29            
1 60509U 24149AT  26191.17898086  .00035949  00000+0  75714-3 0  9992
2 60509  97.3804 277.4109 0002933 187.6056 172.5149 15.45182166105962
FLOCK 4BE-2             
1 60511U 24149AV  26190.66126500  .00051489  00000+0  75479-3 0  9998
2 60511  97.3824 278.6387 0005091 188.0676 172.0497 15.55382059105997
FLOCK 4BE-13            
1 60512U 24149AW  26189.76290344  .00010647  00000+0  24764-3 0  9998
2 60512  97.3713 274.4064 0004596 175.1537 184.9756 15.42489198105698
FLOCK 4BE-27            
1 60513U 24149AX  26191.21140313  .00006801  00000+0  20358-3 0  9994
2 60513  97.3822 273.0785 0003465 199.1987 160.9127 15.34858715105674
FLOCK 4BE-9             
1 60514U 24149AY  26190.03653995  .00011231  00000+0  27016-3 0  9990
2 60514  97.3785 274.5287 0003091 188.6470 171.4725 15.41465848105682
FLOCK 4BE-6             
1 60516U 24149BA  26190.53772123  .00010716  00000+0  26876-3 0  9992
2 60516  97.3785 274.3506 0003749 190.1584 169.9587 15.40208441105715
FLOCK 4BE-14            
1 60517U 24149BB  26191.01947885  .00012708  00000+0  30254-3 0  9994
2 60517  97.3693 274.9946 0004784 194.1657 165.9456 15.41739843105844
FLOCK 4BE-1             
1 60518U 24149BC  26190.03884739  .00013252  00000+0  29887-3 0  9999
2 60518  97.3773 275.3610 0004434 196.2754 163.8352 15.43357693105742
FLOCK 4BE-28            
1 60519U 24149BD  26190.86131701  .00034967  00000+0  71700-3 0  9992
2 60519  97.3741 276.9903 0004492 190.5560 169.5596 15.45968446105947
FLOCK 4BE-5             
1 60559U 24149CV  26191.21499104  .00011318  00000+0  27697-3 0  9991
2 60559  97.3841 275.4460 0003460 186.4153 173.7050 15.40941993105822
